OBJECT_NAME,OBJECT_ID,EPOCH,MEAN_MOTION,ECCENTRICITY,INCLINATION,RA_OF_ASC_NODE,ARG_OF_PERICENTER,MEAN_ANOMALY,EPHEMERIS_TYPE,CLASSIFICATION_TYPE,NORAD_CAT_ID,ELEMENT_SET_NO,REV_AT_EPOCH,BSTAR,MEAN_MOTION_DOT,MEAN_MOTION_DDOT
STARLINK-34315,2025-120L,2026-07-12T13:06:01.135872,15.34403001,.00008725,53.1581,256.6451,121.1507,238.9582,0,U,64266,999,6297,.32740457E-3,.10703E-3,0
STARLINK-34321,2025-120M,2026-07-12T11:07:18.394176,15.34391309,.00015659,53.1567,253.2973,60.4523,299.6635,0,U,64267,999,6307,.22666595E-3,.7287E-4,0
STARLINK-34319,2025-120N,2026-07-12T11:31:32.457792,15.34398084,.00017336,53.1574,253.3975,94.7359,265.3841,0,U,64268,999,6306,.41342212E-3,.13616E-3,0
STARLINK-34298,2025-120P,2026-07-12T11:10:19.597440,15.34408010,.00015776,53.1582,253.3053,159.8619,200.2447,0,U,64269,999,6297,.30626688E-3,.9988E-4,0
STARLINK-34219,2025-120Q,2026-07-13T01:57:34.934112,15.34406782,.0001438,53.1591,254.2996,91.2798,268.8370,0,U,64270,999,6311,.55986E-3,.1859E-3,0
STARLINK-34342,2025-120R,2026-07-12T14:06:29.318976,15.34412250,.0001183,53.1587,256.2010,63.2490,296.8633,0,U,64271,999,6299,.61896E-3,.20602E-3,0
STARLINK-34001,2025-120S,2026-07-12T11:17:04.619040,15.34401525,.00009932,53.1580,256.8873,92.5646,267.5470,0,U,64272,999,6292,.38392444E-3,.12618E-3,0
STARLINK-34334,2025-120T,2026-07-13T04:00:01.998720,15.34378435,.0000661,53.1601,253.4664,95.9159,235.0812,0,U,64273,999,585,.96465E-3,.32334E-3,0
STARLINK-34272,2025-120U,2026-07-12T11:01:55.667712,15.34395506,.00010146,53.1580,256.8216,78.0628,282.0489,0,U,64274,999,6292,.40143902E-3,.13209E-3,0
STARLINK-34293,2025-120V,2026-07-12T11:44:20.792256,15.34396422,.00006078,53.1582,257.0000,74.6787,285.4283,0,U,64275,999,6296,.46686177E-3,.15428E-3,0
STARLINK-34350,2025-120W,2026-07-12T15:57:46.660896,15.34398046,.0001216,53.1570,252.4167,84.2909,275.8232,0,U,64276,999,6310,.17614E-3,.5579E-4,0
STARLINK-34264,2025-120X,2026-07-13T00:00:02.000160,15.34322064,.0001124,53.1587,254.6578,132.5568,147.9047,0,U,64277,999,583,.22208E-2,.75225E-3,0
STARLINK-34353,2025-120Y,2026-07-12T12:56:56.442624,15.34381553,.0000862,53.1571,256.6070,81.7882,278.3218,0,U,64278,999,6303,.21833E-3,.7003E-4,0
STARLINK-34377,2025-120Z,2026-07-13T02:57:22.637088,15.34435585,.00011,53.1554,250.2972,78.0799,282.0326,0,U,64279,999,6317,.95189E-3,.31958E-3,0
STARLINK-34359,2025-120AA,2026-07-13T00:00:02.000160,15.34373730,.0001433,53.1583,254.5867,63.8951,251.5227,0,U,64280,999,583,.14619E-2,.49302E-3,0
STARLINK-34366,2025-120AB,2026-07-13T04:00:01.998720,15.34380756,.0002127,53.1584,253.7175,87.3272,115.6461,0,U,64281,999,585,.87181E-3,.29176E-3,0
STARLINK-34381,2025-120AC,2026-07-12T13:32:37.910688,15.30196357,.0000924,53.1594,256.7554,70.2061,289.9039,0,U,64282,999,6301,.40865E-3,.11762E-3,0
STARLINK-34448,2025-123A,2026-07-12T11:59:48.579648,14.98334653,.00037053,69.9991,239.7790,269.2968,90.7767,0,U,64291,999,6153,.20732262E-3,.2382E-4,0
STARLINK-34362,2025-123B,2026-07-12T15:29:51.025344,14.98345508,.0003436,69.9995,239.4844,270.1301,89.9464,0,U,64292,999,6155,-.85662E-3,-.10304E-3,0
STARLINK-34428,2025-123C,2026-07-12T14:41:45.844224,14.98365066,.0003811,69.9993,239.3626,271.0564,89.0158,0,U,64293,999,6155,.91695E-3,.10875E-3,0
STARLINK-34388,2025-123D,2026-07-12T23:42:48.130848,14.98339776,.0003963,70.0000,238.6664,264.8455,95.2251,0,U,64294,999,6160,.1729E-3,.1971E-4,0
STARLINK-34424,2025-123E,2026-07-13T03:06:56.223360,14.98299698,.000356,70.0002,238.3531,288.4462,71.6309,0,U,64295,999,6162,.28942E-2,.34585E-3,0
STARLINK-34443,2025-123F,2026-07-12T13:29:40.718112,14.98338735,.000356,69.9988,239.5885,272.8958,87.1793,0,U,64296,999,6154,-.12445E-3,-.1578E-4,0
STARLINK-34369,2025-123G,2026-07-12T12:11:45.887136,14.98376189,.00040824,69.9993,239.7985,264.7120,95.3574,0,U,64297,999,6031,-.24311397E-2,-.29019E-3,0
STARLINK-34391,2025-123H,2026-07-12T12:47:37.158144,14.98334303,.00038023,69.9996,239.4893,268.7143,91.3580,0,U,64298,999,6032,.13442014E-3,.1511E-4,0
STARLINK-34378,2025-123J,2026-07-12T13:29:55.968576,14.98332684,.0003507,69.9996,239.5931,273.8141,86.2617,0,U,64299,999,6032,.2135E-3,.2455E-4,0
STARLINK-34376,2025-123K,2026-07-13T02:54:49.944960,14.98339113,.0003962,70.0004,238.3346,261.2035,98.8675,0,U,64300,999,6040,.15627E-3,.1772E-4,0
STARLINK-34372,2025-123L,2026-07-12T13:41:42.908064,14.98339851,.0003834,69.9991,239.6193,267.2921,92.7799,0,U,64301,999,6032,.158E-3,.1793E-4,0
STARLINK-34379,2025-123M,2026-07-12T09:06:00.529056,15.44775977,.00033489,69.9991,188.0302,270.0199,90.0600,0,U,64302,999,6159,.52634761E-3,.24637E-3,0
STARLINK-34356,2025-123N,2026-07-12T12:53:37.746816,14.98337661,.00040314,69.9994,239.5019,268.9513,91.1184,0,U,64303,999,6032,.16396146E-3,.1864E-4,0
