STARLINK-34315          
1 64266U 25120L   26193.54584648  .00010703  00000+0  32740-3 0  9998
2 64266  53.1581 256.6451 0000872 121.1507 238.9582 15.34403001 62974
STARLINK-34321          
1 64267U 25120M   26193.46340734  .00007287  00000+0  22667-3 0  9996
2 64267  53.1567 253.2973 0001565  60.4523 299.6635 15.34391309 63076
STARLINK-34319          
1 64268U 25120N   26193.48023678  .00013616  00000+0  41342-3 0  9998
2 64268  53.1574 253.3975 0001733  94.7359 265.3841 15.34398084 63067
STARLINK-34298          
1 64269U 25120P   26193.46550460  .00009988  00000+0  30627-3 0  9992
2 64269  53.1582 253.3053 0001577 159.8619 200.2447 15.34408010 62972
STARLINK-34219          
1 64270U 25120Q   26194.08165433  .00018590  00000+0  55986-3 0  9999
2 64270  53.1591 254.2996 0001438  91.2798 268.8370 15.34406782 63119
STARLINK-34342          
1 64271U 25120R   26193.58783934  .00020602  00000+0  61896-3 0  9990
2 64271  53.1587 256.2010 0001183  63.2490 296.8633 15.34412250 62994
STARLINK-34001          
1 64272U 25120S   26193.47019235  .00012618  00000+0  38392-3 0  9998
2 64272  53.1580 256.8873 0000993  92.5646 267.5470 15.34401525 62927
STARLINK-34334          
1 64273U 25120T   26194.16668980  .00032334  00000+0  96465-3 0  9995
2 64273  53.1601 253.4664 0000661  95.9159 235.0812 15.34378435  5853
STARLINK-34272          
1 64274U 25120U   26193.45967208  .00013209  00000+0  40144-3 0  9995
2 64274  53.1580 256.8216 0001014  78.0628 282.0489 15.34395506 62927
STARLINK-34293          
1 64275U 25120V   26193.48912954  .00015428  00000+0  46686-3 0  9999
2 64275  53.1582 257.0000 0000607  74.6787 285.4283 15.34396422 62960
STARLINK-34350          
1 64276U 25120W   26193.66512339  .00005579  00000+0  17614-3 0  9998
2 64276  53.1570 252.4167 0001216  84.2909 275.8232 15.34398046 63109
STARLINK-34264          
1 64277U 25120X   26194.00002315  .00075225  00000+0  22208-2 0  9995
2 64277  53.1587 254.6578 0001124 132.5568 147.9047 15.34322064  5830
STARLINK-34353          
1 64278U 25120Y   26193.53954216  .00007003  00000+0  21833-3 0  9992
2 64278  53.1571 256.6070 0000862  81.7882 278.3218 15.34381553 63038
STARLINK-34377          
1 64279U 25120Z   26194.12317867  .00031958  00000+0  95189-3 0  9995
2 64279  53.1554 250.2972 0001100  78.0799 282.0326 15.34435585 63175
STARLINK-34359          
1 64280U 25120AA  26194.00002315  .00049302  00000+0  14619-2 0  9993
2 64280  53.1583 254.5867 0001433  63.8951 251.5227 15.34373730  5833
STARLINK-34366          
1 64281U 25120AB  26194.16668980  .00029176  00000+0  87181-3 0  9999
2 64281  53.1584 253.7175 0002127  87.3272 115.6461 15.34380756  5854
STARLINK-34381          
1 64282U 25120AC  26193.56432767  .00011762  00000+0  40865-3 0  9995
2 64282  53.1594 256.7554 0000924  70.2061 289.9039 15.30196357 63016
STARLINK-34448          
1 64291U 25123A   26193.49986782  .00002382  00000+0  20732-3 0  9990
2 64291  69.9991 239.7790 0003705 269.2968  90.7767 14.98334653 61538
STARLINK-34362          
1 64292U 25123B   26193.64572946 -.00010304  00000+0 -85662-3 0  9999
2 64292  69.9995 239.4844 0003436 270.1301  89.9464 14.98345508 61550
STARLINK-34428          
1 64293U 25123C   26193.61233616  .00010875  00000+0  91695-3 0  9999
2 64293  69.9993 239.3626 0003811 271.0564  89.0158 14.98365066 61556
STARLINK-34388          
1 64294U 25123D   26193.98805707  .00001971  00000+0  17290-3 0  9992
2 64294  70.0000 238.6664 0003963 264.8455  95.2251 14.98339776 61608
STARLINK-34424          
1 64295U 25123E   26194.12981740  .00034585  00000+0  28942-2 0  9994
2 64295  70.0002 238.3531 0003560 288.4462  71.6309 14.98299698 61626
STARLINK-34443          
1 64296U 25123F   26193.56227683 -.00001578  00000+0 -12445-3 0  9991
2 64296  69.9988 239.5885 0003560 272.8958  87.1793 14.98338735 61545
STARLINK-34369          
1 64297U 25123G   26193.50816999 -.00029019  00000+0 -24311-2 0  9994
2 64297  69.9993 239.7985 0004082 264.7120  95.3574 14.98376189 60313
STARLINK-34391          
1 64298U 25123H   26193.53306896  .00001511  00000+0  13442-3 0  9997
2 64298  69.9996 239.4893 0003802 268.7143  91.3580 14.98334303 60326
STARLINK-34378          
1 64299U 25123J   26193.56245334  .00002455  00000+0  21350-3 0  9995
2 64299  69.9996 239.5931 0003507 273.8141  86.2617 14.98332684 60322
STARLINK-34376          
1 64300U 25123K   26194.12141140  .00001772  00000+0  15627-3 0  9992
2 64300  70.0004 238.3346 0003962 261.2035  98.8675 14.98339113 60409
STARLINK-34372          
1 64301U 25123L   26193.57063551  .00001793  00000+0  15800-3 0  9996
2 64301  69.9991 239.6193 0003834 267.2921  92.7799 14.98339851 60324
STARLINK-34379          
1 64302U 25123M   26193.37917279  .00024637  00000+0  52635-3 0  9999
2 64302  69.9991 188.0302 0003348 270.0199  90.0600 15.44775977 61590
STARLINK-34356          
1 64303U 25123N   26193.53724244  .00001864  00000+0  16396-3 0  9997
2 64303  69.9994 239.5019 0004031 268.9513  91.1184 14.98337661 60328
